COMMENT,ORIGINATOR,NORAD_CAT_ID,OBJECT_NAME,OBJECT_TYPE,CLASSIFICATION_TYPE,INTLDES,EPOCH,EPOCH_MICROSECONDS,MEAN_MOTION,ECCENTRICITY,INCLINATION,RA_OF_ASC_NODE,ARG_OF_PERICENTER,MEAN_ANOMALY,EPHEMERIS_TYPE,ELEMENT_SET_NO,REV_AT_EPOCH,BSTAR,MEAN_MOTION_DOT,MEAN_MOTION_DDOT,FILE,TLE_LINE0,TLE_LINE1,TLE_LINE2,OBJECT_ID,OBJECT_NUMBER,SEMIMAJOR_AXIS,PERIOD,APOGEE,PERIGEE,DECAYED,date
GENERATED VIA SPACETRACK.ORG API,18 SPCS,46301,SPACEBEE-20,PAYLOAD,U,20061AF,2023/4/18 20:51,82144,15.53864657,0.0005037,97.4108,185.6276,231.9936,128.0863,0,999,14518,0.0041226,0.00274069,0,3889890,0 SPACEBEE-20,1 46301U 20061AF  23108.86894771  .00274069  00000-0  41226-2 0  9992,2 46301  97.4108 185.6276 0005037 231.9936 128.0863 15.53864657145185,2020-061AF,46301,6783.592,92.672,408.874,402.04,1,
GENERATED VIA SPACETRACK.ORG API,18 SPCS,46301,SPACEBEE-20,PAYLOAD,U,20061AF,2023/4/18 20:51,82144,15.53864657,0.0005037,97.4108,185.6276,231.9936,128.0863,0,999,14518,0.0041226,0.00274069,0,3889987,0 SPACEBEE-20,1 46301U 20061AF  23108.86894771  .00274069  00000-0  41226-2 0  9992,2 46301  97.4108 185.6276 0005037 231.9936 128.0863 15.53864657145185,2020-061AF,46301,6783.592,92.672,408.874,402.04,1,
GENERATED VIA SPACETRACK.ORG API,18 SPCS,46301,SPACEBEE-20,PAYLOAD,U,20061AF,2023/4/19 10:45,117824,15.54115092,0.0005111,97.4106,186.2269,232.3231,127.7559,0,999,14527,0.0035606,0.00237762,0,3890306,0 SPACEBEE-20,1 46301U 20061AF  23109.44848516  .00237762  00000-0  35606-2 0  9997,2 46301  97.4106 186.2269 0005111 232.3231 127.7559 15.54115092145279,2020-061AF,46301,6782.863,92.657,408.195,401.261,1,
GENERATED VIA SPACETRACK.ORG API,18 SPCS,46301,SPACEBEE-20,PAYLOAD,U,20061AF,2023/4/19 10:45,117824,15.54115092,0.0005111,97.4106,186.2269,232.3231,127.7559,0,999,14527,0.0035606,0.00237762,0,3890383,0 SPACEBEE-20,1 46301U 20061AF  23109.44848516  .00237762  00000-0  35606-2 0  9997,2 46301  97.4106 186.2269 0005111 232.3231 127.7559 15.54115092145279,2020-061AF,46301,6782.863,92.657,408.195,401.261,1,
GENERATED VIA SPACETRACK.ORG API,18 SPCS,46301,SPACEBEE-20,PAYLOAD,U,20061AF,2023/4/19 18:29,312544,15.54269877,0.0005155,97.4106,186.56,232.2925,127.7862,0,999,14532,0.0038552,0.00259602,0,3890520,0 SPACEBEE-20,1 46301U 20061AF  23109.77040871  .00259602  00000-0  38552-2 0  9991,2 46301  97.4106 186.5600 0005155 232.2925 127.7862 15.54269877145322,2020-061AF,46301,6782.413,92.648,407.774,400.782,1,
GENERATED VIA SPACETRACK.ORG API,18 SPCS,46301,SPACEBEE-20,PAYLOAD,U,20061AF,2023/4/20 3:45,691488,15.54440391,0.0005124,97.4104,186.9598,231.7379,128.3414,0,999,14538,0.0031779,0.00214077,0,3890827,0 SPACEBEE-20,1 46301U 20061AF  23110.15667467  .00214077  00000-0  31779-2 0  9992,2 46301  97.4104 186.9598 0005124 231.7379 128.3414 15.54440391145381,2020-061AF,46301,6781.917,92.638,407.257,400.307,1,
GENERATED VIA SPACETRACK.ORG API,18 SPCS,46301,SPACEBEE-20,PAYLOAD,U,20061AF,2023/4/20 3:45,691488,15.54440391,0.0005124,97.4104,186.9598,231.7379,128.3414,0,999,14538,0.0031779,0.00214077,0,3890971,0 SPACEBEE-20,1 46301U 20061AF  23110.15667467  .00214077  00000-0  31779-2 0  9992,2 46301  97.4104 186.9598 0005124 231.7379 128.3414 15.54440391145381,2020-061AF,46301,6781.917,92.638,407.257,400.307,1,
GENERATED VIA SPACETRACK.ORG API,18 SPCS,46301,SPACEBEE-20,PAYLOAD,U,20061AF,2023/4/20 19:12,70304,15.54708302,0.0005066,97.4097,187.6258,231.3948,128.6852,0,999,14548,0.002974,0.00201987,0,3891109,0 SPACEBEE-20,1 46301U 20061AF  23110.80035961  .00201987  00000-0  29740-2 0  9993,2 46301  97.4097 187.6258 0005066 231.3948 128.6852 15.54708302145485,2020-061AF,46301,6781.138,92.622,406.438,399.567,1,
GENERATED VIA SPACETRACK.ORG API,18 SPCS,46301,SPACEBEE-20,PAYLOAD,U,20061AF,2023/4/21 4:28,181120,15.54870706,0.0005066,97.4093,188.0258,231.1367,128.9436,0,999,14554,0.0030668,0.00209731,0,3891234,0 SPACEBEE-20,1 46301U 20061AF  23111.18651830  .00209731  00000-0  30668-2 0  9990,2 46301  97.4093 188.0258 0005066 231.1367 128.9436 15.54870706145545,2020-061AF,46301,6780.665,92.612,405.966,399.095,1,
GENERATED VIA SPACETRACK.ORG API,18 SPCS,46301,SPACEBEE-20,PAYLOAD,U,20061AF,2023/4/21 10:39,991776,15.54970582,0.0005136,97.4092,188.2924,231.3717,128.7078,0,999,14558,0.0029572,0.00202796,0,3891529,0 SPACEBEE-20,1 46301U 20061AF  23111.44393509  .00202796  00000-0  29572-2 0  9991,2 46301  97.4092 188.2924 0005136 231.3717 128.7078 15.54970582145582,2020-061AF,46301,6780.375,92.606,405.723,398.758,1,
GENERATED VIA SPACETRACK.ORG API,18 SPCS,46301,SPACEBEE-20,PAYLOAD,U,20061AF,2023/4/21 18:22,793472,15.55123263,0.0005206,97.4093,188.6258,231.4582,128.6206,0,999,14563,0.0033972,0.0023524,0,3891634,0 SPACEBEE-20,1 46301U 20061AF  23111.76568048  .00235240  00000-0  33972-2 0  9997,2 46301  97.4093 188.6258 0005206 231.4582 128.6206 15.55123263145631,2020-061AF,46301,6779.931,92.597,405.326,398.267,1,
GENERATED VIA SPACETRACK.ORG API,18 SPCS,46301,SPACEBEE-20,PAYLOAD,U,20061AF,2023/4/21 18:22,793472,15.55123263,0.0005206,97.4093,188.6258,231.4582,128.6206,0,999,14563,0.0033972,0.0023524,0,3891716,0 SPACEBEE-20,1 46301U 20061AF  23111.76568048  .00235240  00000-0  33972-2 0  9997,2 46301  97.4093 188.6258 0005206 231.4582 128.6206 15.55123263145631,2020-061AF,46301,6779.931,92.597,405.326,398.267,1,
GENERATED VIA SPACETRACK.ORG API,18 SPCS,46301,SPACEBEE-20,PAYLOAD,U,20061AF,2023/4/22 3:38,687136,15.55312012,0.0005204,97.4087,189.0257,231.5245,128.5543,0,999,14569,0.0034633,0.00241671,0,3892071,0 SPACEBEE-20,1 46301U 20061AF  23112.15173249  .00241671  00000-0  34633-2 0  9996,2 46301  97.4087 189.0257 0005204 231.5245 128.5543 15.55312012145694,2020-061AF,46301,6779.383,92.586,404.776,397.72,1,
GENERATED VIA SPACETRACK.ORG API,18 SPCS,46301,SPACEBEE-20,PAYLOAD,U,20061AF,2023/4/22 19:04,200416,15.55570301,0.0005191,97.4079,189.6922,231.0773,129.0019,0,999,14579,0.0027711,0.00194026,0,3892188,0 SPACEBEE-20,1 46301U 20061AF  23112.79506019  .00194026  00000-0  27711-2 0  9991,2 46301  97.4079 189.6922 0005191 231.0773 129.0019 15.55570301145798,2020-061AF,46301,6778.632,92.571,404.016,396.979,1,
GENERATED VIA SPACETRACK.ORG API,18 SPCS,46301,SPACEBEE-20,PAYLOAD,U,20061AF,2023/4/22 19:04,200416,15.55570301,0.0005191,97.4079,189.6922,231.0773,129.0019,0,999,14579,0.0027711,0.00194026,0,3892285,0 SPACEBEE-20,1 46301U 20061AF  23112.79506019  .00194026  00000-0  27711-2 0  9991,2 46301  97.4079 189.6922 0005191 231.0773 129.0019 15.55570301145798,2020-061AF,46301,6778.632,92.571,404.016,396.979,1,
GENERATED VIA SPACETRACK.ORG API,18 SPCS,46301,SPACEBEE-20,PAYLOAD,U,20061AF,2023/4/23 10:31,16160,15.5585032,0.0005273,97.4076,190.3587,231.6218,128.4564,0,999,14589,0.0031358,0.00222636,0,3892614,0 SPACEBEE-20,1 46301U 20061AF  23113.43827565  .00222636  00000-0  31358-2 0  9996,2 46301  97.4076 190.3587 0005273 231.6218 128.4564 15.55850320145893,2020-061AF,46301,6777.819,92.554,403.258,396.11,1,
GENERATED VIA SPACETRACK.ORG API,18 SPCS,46301,SPACEBEE-20,PAYLOAD,U,20061AF,2023/4/23 10:31,16160,15.5585032,0.0005273,97.4076,190.3587,231.6218,128.4564,0,999,14589,0.0031358,0.00222636,0,3892688,0 SPACEBEE-20,1 46301U 20061AF  23113.43827565  .00222636  00000-0  31358-2 0  9996,2 46301  97.4076 190.3587 0005273 231.6218 128.4564 15.55850320145893,2020-061AF,46301,6777.819,92.554,403.258,396.11,1,
GENERATED VIA SPACETRACK.ORG API,18 SPCS,46301,SPACEBEE-20,PAYLOAD,U,20061AF,2023/4/23 18:14,174272,15.5601583,0.0005275,97.4078,190.6923,231.9284,128.1495,0,999,14594,0.0039179,0.00281964,0,3892831,0 SPACEBEE-20,1 46301U 20061AF  23113.75983998  .00281964  00000-0  39179-2 0  9992,2 46301  97.4078 190.6923 0005275 231.9284 128.1495 15.56015830145946,2020-061AF,46301,6777.338,92.544,402.778,395.628,1,
GENERATED VIA SPACETRACK.ORG API,18 SPCS,46301,SPACEBEE-20,PAYLOAD,U,20061AF,2023/4/23 18:14,174272,15.5601583,0.0005275,97.4078,190.6923,231.9284,128.1495,0,999,14594,0.0039179,0.00281964,0,3892984,0 SPACEBEE-20,1 46301U 20061AF  23113.75983998  .00281964  00000-0  39179-2 0  9992,2 46301  97.4078 190.6923 0005275 231.9284 128.1495 15.56015830145946,2020-061AF,46301,6777.338,92.544,402.778,395.628,1,
GENERATED VIA SPACETRACK.ORG API,18 SPCS,46301,SPACEBEE-20,PAYLOAD,U,20061AF,2023/4/24 6:34,379712,15.56474385,0.0005283,97.4081,191.2264,232.4257,127.6518,0,999,14602,0.0082934,0.00634576,0,3893224,0 SPACEBEE-20,1 46301U 20061AF  23114.27425208  .00634576  00000-0  82934-2 0  9993,2 46301  97.4081 191.2264 0005283 232.4257 127.6518 15.56474385146024,2020-061AF,46301,6776.007,92.517,401.452,394.292,1,
GENERATED VIA SPACETRACK.ORG API,18 SPCS,46301,SPACEBEE-20,PAYLOAD,U,20061AF,2023/4/24 6:34,379712,15.56474385,0.0005283,97.4081,191.2264,232.4257,127.6518,0,999,14602,0.0082934,0.00634576,0,3893330,0 SPACEBEE-20,1 46301U 20061AF  23114.27425208  .00634576  00000-0  82934-2 0  9993,2 46301  97.4081 191.2264 0005283 232.4257 127.6518 15.56474385146024,2020-061AF,46301,6776.007,92.517,401.452,394.292,1,
GENERATED VIA SPACETRACK.ORG API,18 SPCS,46301,SPACEBEE-20,PAYLOAD,U,20061AF,2023/4/25 4:10,454752,15.56966369,0.000527,97.4073,192.1608,231.3834,128.695,0,999,14616,0.0031641,0.00234419,0,3893758,0 SPACEBEE-20,1 46301U 20061AF  23115.17417193  .00234419  00000-0  31641-2 0  9998,2 46301  97.4073 192.1608 0005270 231.3834 128.6950 15.56966369146166,2020-061AF,46301,6774.58,92.488,400.015,392.874,1,
GENERATED VIA SPACETRACK.ORG API,18 SPCS,46301,SPACEBEE-20,PAYLOAD,U,20061AF,2023/4/25 5:43,317952,15.5699319,0.0005265,97.4075,192.2276,231.5994,128.4789,0,999,14617,0.0030687,0.00227374,0,3894092,0 SPACEBEE-20,1 46301U 20061AF  23115.23844118  .00227374  00000-0  30687-2 0  9997,2 46301  97.4075 192.2276 0005265 231.5994 128.4789 15.56993190146174,2020-061AF,46301,6774.502,92.486,399.934,392.8,1,
